[
{
"CCSDS_OMM_VERS": "2.0",
"COMMENT": "GENERATED VIA SPACE-TRACK.ORG API",
"CREATION_DATE": "2025-03-15T17:32:46",
"ORIGINATOR": "18 SPCS",
"OBJECT_NAME": "GALILEO 32 (137)",
"OBJECT_ID": "2024-167A",
"CENTER_NAME": "EARTH",
"REF_FRAME": "TEME",
"TIME_SYSTEM": "UTC",
"MEAN_ELEMENT_THEORY": "SGP4",
"EPOCH": "2025-03-15T13:43:09.516288",
"MEAN_MOTION": "1.70474222",
"ECCENTRICITY": "0.00024270",
"INCLINATION": "55.3408",
"RA_OF_ASC_NODE": "233.8937",
"ARG_OF_PERICENTER": "185.1841",
"MEAN_ANOMALY": "179.1764",
"EPHEMERIS_TYPE": "0",
"CLASSIFICATION_TYPE": "U",
"NORAD_CAT_ID": "61182",
"ELEMENT_SET_NO": "999",
"REV_AT_EPOCH": "306",
"BSTAR": "0.00000000000000",
"MEAN_MOTION_DOT": "0.00000011",
"MEAN_MOTION_DDOT": "0.0000000000000",
"SEMIMAJOR_AXIS": "29600.294",
"PERIOD": "844.702",
"APOAPSIS": "23229.343",
"PERIAPSIS": "23214.975",
"OBJECT_TYPE": "PAYLOAD",
"RCS_SIZE": "LARGE",
"COUNTRY_CODE": "ESA",
"LAUNCH_DATE": "2024-09-17",
"SITE": "AFETR",
"DECAY_DATE": null,
"FILE": "4670048",
"GP_ID": "283179089",
"TLE_LINE0": "0 GALILEO 32 (137)",
"TLE_LINE1": "1 61182U 24167A   25074.57163792  .00000011  00000-0  00000-0 0  9998",
"TLE_LINE2": "2 61182  55.3408 233.8937 0002427 185.1841 179.1764  1.70474222  3066"
},
{
"REF_FRAME": "TEME",
"TIME_SYSTEM": "UTC",
"MEAN_ELEMENT_THEORY": "SGP4",
"EPOCH": "2025-03-21T00:06:52.380288",
"MEAN_MOTION": "1.70475846",
"ECCENTRICITY": "0.0004100",
"INCLINATION": "57.1078",
"RA_OF_ASC_NODE": "354.0443",
"ARG_OF_PERICENTER": "8.4731",
"MEAN_ANOMALY": "351.5608",
"EPHEMERIS_TYPE": "0",
"CLASSIFICATION_TYPE": "U",
"NORAD_CAT_ID": "37846",
"TLE_LINE0": "0 GALILEO-PFM",
"TLE_LINE1": "1 37846U 11060A   25080.00477292 -.00000085  00000-0  00000+0 0  9995",
"TLE_LINE2": "2 37846  57.1078 354.0443 0004100   8.4731 351.5608  1.70475846 83527"
},
{
"REF_FRAME": "TEME",
"TIME_SYSTEM": "UTC",
"MEAN_ELEMENT_THEORY": "SGP4",
"EPOCH": "2025-03-21T01:48:20.281536",
"MEAN_MOTION": "1.70475488",
"ECCENTRICITY": "0.0004660",
"INCLINATION": "57.2854",
"RA_OF_ASC_NODE": "354.0137",
"ARG_OF_PERICENTER": "319.5747",
"MEAN_ANOMALY": "40.4178",
"EPHEMERIS_TYPE": "0",
"CLASSIFICATION_TYPE": "U",
"NORAD_CAT_ID": "43566",
"TLE_LINE0": "0 GALILEO 23 (2C9)",
"TLE_LINE1": "1 43566U 18060C   25080.07523474 -.00000084  00000-0  00000+0 0  9998",
"TLE_LINE2": "2 43566  57.2854 354.0137 0004660 319.5747  40.4178  1.70475488 41465"
}
]
